{"type":"FeatureCollection","nota":"Seccionado censal 1/1/2021, INE (via SERPAVI/MIVAU), simplificado a 4 m","features":[{"type":"Feature","properties":{"CUSEC":"1204001001"},"geometry":{"type":"Polygon","coordinates":[[[-0.038375,39.986682],[-0.036156,39.986136],[-0.03765,39.984102],[-0.040779,39.985025],[-0.040392,39.986113],[-0.039935,39.987057],[-0.038375,39.986682]]]}},{"type":"Feature","properties":{"CUSEC":"1204001003"},"geometry":{"type":"Polygon","coordinates":[[[-0.049219,39.989291],[-0.042939,39.987772],[-0.042937,39.987672],[-0.042846,39.987579],[-0.044332,39.986092],[-0.047434,39.986964],[-0.049004,39.987254],[-0.050537,39.987431],[-0.052081,39.987946],[-0.05236,39.987569],[-0.053153,39.987959],[-0.052867,39.988313],[-0.053622,39.988714],[-0.054549,39.989056],[-0.056892,39.989725],[-0.057566,39.990135],[-0.057852,39.990427],[-0.054368,39.991374],[-0.054035,39.990654],[-0.053814,39.990404],[-0.049219,39.989291]]]}},{"type":"Feature","properties":{"CUSEC":"1204001004"},"geometry":{"type":"Polygon","coordinates":[[[-0.04237,39.987624],[-0.039936,39.987055],[-0.040392,39.986113],[-0.040689,39.985258],[-0.043194,39.985775],[-0.044332,39.986092],[-0.042846,39.987579],[-0.042948,39.987719],[-0.042872,39.987855],[-0.042731,39.987899],[-0.042602,39.987873],[-0.0425,39.987766],[-0.042513,39.987655],[-0.04237,39.987624]]]}},{"type":"Feature","properties":{"CUSEC":"1204002001"},"geometry":{"type":"Polygon","coordinates":[[[-0.034678,39.988253],[-0.03494,39.9878],[-0.036156,39.986136],[-0.038375,39.986682],[-0.03722,39.988684],[-0.034678,39.988253]]]}},{"type":"Feature","properties":{"CUSEC":"1204002002"},"geometry":{"type":"Polygon","coordinates":[[[-0.037181,39.988812],[-0.038375,39.986681],[-0.039935,39.987057],[-0.038872,39.988859],[-0.03874,39.989183],[-0.038527,39.989094],[-0.037181,39.988812]]]}},{"type":"Feature","properties":{"CUSEC":"1204002003"},"geometry":{"type":"Polygon","coordinates":[[[-0.038739,39.989184],[-0.038872,39.988859],[-0.039936,39.987055],[-0.04237,39.987624],[-0.041224,39.988953],[-0.040614,39.98975],[-0.039969,39.989505],[-0.038739,39.989184]]]}},{"type":"Feature","properties":{"CUSEC":"1204002004"},"geometry":{"type":"Polygon","coordinates":[[[-0.040614,39.98975],[-0.041224,39.988953],[-0.04237,39.987624],[-0.042513,39.987655],[-0.0425,39.987766],[-0.042577,39.987859],[-0.043599,39.988386],[-0.042559,39.990574],[-0.040614,39.98975]]]}},{"type":"Feature","properties":{"CUSEC":"1204002005"},"geometry":{"type":"Polygon","coordinates":[[[-0.043971,39.991653],[-0.045764,39.989499],[-0.045843,39.989539],[-0.0466,39.988718],[-0.046789,39.988695],[-0.047596,39.988893],[-0.047506,39.98902],[-0.048291,39.989455],[-0.046401,39.99161],[-0.045496,39.991621],[-0.045408,39.99179],[-0.043971,39.991653]]]}},{"type":"Feature","properties":{"CUSEC":"1204002006"},"geometry":{"type":"Polygon","coordinates":[[[-0.045408,39.99179],[-0.045496,39.991621],[-0.046401,39.99161],[-0.048291,39.989455],[-0.047506,39.98902],[-0.047596,39.988893],[-0.049219,39.989291],[-0.048206,39.990784],[-0.046766,39.992448],[-0.045408,39.99179]]]}},{"type":"Feature","properties":{"CUSEC":"1204002007"},"geometry":{"type":"Polygon","coordinates":[[[-0.048514,39.993336],[-0.046766,39.992448],[-0.048206,39.990784],[-0.049219,39.989291],[-0.053635,39.990341],[-0.05394,39.990504],[-0.054368,39.991374],[-0.053707,39.99156],[-0.052445,39.991719],[-0.050084,39.992172],[-0.049578,39.992343],[-0.04915,39.992562],[-0.048765,39.992959],[-0.048514,39.993336]]]}},{"type":"Feature","properties":{"CUSEC":"1204002008"},"geometry":{"type":"Polygon","coordinates":[[[-0.042559,39.990574],[-0.043599,39.988386],[-0.042704,39.987899],[-0.042848,39.987869],[-0.042939,39.987772],[-0.046791,39.988695],[-0.046556,39.988745],[-0.045843,39.989539],[-0.045764,39.989499],[-0.044179,39.99138],[-0.044173,39.991263],[-0.042559,39.990574]]]}},{"type":"Feature","properties":{"CUSEC":"1204003001"},"geometry":{"type":"Polygon","coordinates":[[[-0.031886,39.986903],[-0.032332,39.985889],[-0.03314,39.98594],[-0.034236,39.986176],[-0.034306,39.986055],[-0.035841,39.986565],[-0.03518,39.987469],[-0.033809,39.987283],[-0.033807,39.987245],[-0.032948,39.987073],[-0.031886,39.986903]]]}},{"type":"Feature","properties":{"CUSEC":"1204003002"},"geometry":{"type":"Polygon","coordinates":[[[-0.032332,39.985889],[-0.029631,39.985449],[-0.030421,39.983702],[-0.031502,39.983923],[-0.033106,39.984336],[-0.035019,39.985046],[-0.034236,39.986176],[-0.03314,39.98594],[-0.032332,39.985889]]]}},{"type":"Feature","properties":{"CUSEC":"1204003003"},"geometry":{"type":"Polygon","coordinates":[[[-0.034306,39.986055],[-0.035331,39.984546],[-0.035637,39.983769],[-0.035599,39.983644],[-0.035648,39.983122],[-0.035847,39.982475],[-0.038038,39.983495],[-0.038023,39.983544],[-0.03817,39.98369],[-0.037783,39.984054],[-0.037707,39.984022],[-0.035841,39.986565],[-0.034306,39.986055]]]}},{"type":"Feature","properties":{"CUSEC":"1204003005"},"geometry":{"type":"Polygon","coordinates":[[[-0.031632,39.983956],[-0.032765,39.981444],[-0.035847,39.982475],[-0.035648,39.983122],[-0.035599,39.983644],[-0.035637,39.983769],[-0.035331,39.984546],[-0.035019,39.985046],[-0.033106,39.984336],[-0.031632,39.983956]]]}},{"type":"Feature","properties":{"CUSEC":"1204003006"},"geometry":{"type":"Polygon","coordinates":[[[-0.030421,39.983702],[-0.025294,39.982645],[-0.02552,39.982099],[-0.025577,39.981597],[-0.029298,39.982557],[-0.029616,39.981888],[-0.032291,39.982525],[-0.031632,39.983956],[-0.030421,39.983702]]]}},{"type":"Feature","properties":{"CUSEC":"1204003007"},"geometry":{"type":"Polygon","coordinates":[[[-0.028035,39.98511],[-0.024781,39.984358],[-0.024763,39.98441],[-0.024506,39.984359],[-0.025304,39.982619],[-0.030421,39.983702],[-0.029631,39.985449],[-0.028035,39.98511]]]}},{"type":"Feature","properties":{"CUSEC":"1204003008"},"geometry":{"type":"Polygon","coordinates":[[[-0.025581,39.981598],[-0.026297,39.980455],[-0.027249,39.978688],[-0.029386,39.979471],[-0.029019,39.980243],[-0.030212,39.980596],[-0.029298,39.982557],[-0.025581,39.981598]]]}},{"type":"Feature","properties":{"CUSEC":"1204003009"},"geometry":{"type":"Polygon","coordinates":[[[-0.027015,39.987584],[-0.027853,39.985184],[-0.028035,39.98511],[-0.029631,39.985449],[-0.032332,39.985889],[-0.0313,39.988281],[-0.027015,39.987584]]]}},{"type":"Feature","properties":{"CUSEC":"1204003010"},"geometry":{"type":"Polygon","coordinates":[[[-0.0313,39.988281],[-0.031886,39.986903],[-0.032948,39.987073],[-0.033807,39.987245],[-0.033809,39.987283],[-0.03518,39.987469],[-0.034678,39.988253],[-0.034539,39.988212],[-0.034357,39.988233],[-0.034228,39.988366],[-0.034171,39.98875],[-0.0313,39.988281]]]}},{"type":"Feature","properties":{"CUSEC":"1204003011"},"geometry":{"type":"Polygon","coordinates":[[[-0.029616,39.981888],[-0.030212,39.980596],[-0.032763,39.981448],[-0.032291,39.982525],[-0.029616,39.981888]]]}},{"type":"Feature","properties":{"CUSEC":"1204003012"},"geometry":{"type":"Polygon","coordinates":[[[-0.023798,39.9873],[-0.02383,39.986993],[-0.024781,39.984358],[-0.028036,39.985109],[-0.027853,39.985184],[-0.027015,39.987584],[-0.02574,39.987473],[-0.025703,39.987364],[-0.025561,39.987297],[-0.025432,39.987309],[-0.02532,39.987451],[-0.023798,39.9873]]]}},{"type":"Feature","properties":{"CUSEC":"1204004001"},"geometry":{"type":"Polygon","coordinates":[[[-0.035847,39.982475],[-0.035956,39.981988],[-0.035756,39.981929],[-0.036585,39.98123],[-0.039921,39.982445],[-0.039668,39.982708],[-0.03959,39.982911],[-0.039427,39.982845],[-0.038743,39.983421],[-0.03817,39.98369],[-0.038023,39.983544],[-0.038038,39.983495],[-0.035847,39.982475]]]}},{"type":"Feature","properties":{"CUSEC":"1204004002"},"geometry":{"type":"Polygon","coordinates":[[[-0.033445,39.981672],[-0.03426,39.980389],[-0.036577,39.981236],[-0.035756,39.981929],[-0.035956,39.981988],[-0.035823,39.982465],[-0.033445,39.981672]]]}},{"type":"Feature","properties":{"CUSEC":"1204004003"},"geometry":{"type":"Polygon","coordinates":[[[-0.038196,39.981828],[-0.039607,39.979754],[-0.041718,39.980501],[-0.04142,39.980913],[-0.041473,39.98093],[-0.039921,39.982445],[-0.038196,39.981828]]]}},{"type":"Feature","properties":{"CUSEC":"1204004005"},"geometry":{"type":"Polygon","coordinates":[[[-0.041718,39.980501],[-0.040522,39.98008],[-0.041538,39.978629],[-0.043655,39.979347],[-0.042758,39.9801],[-0.042732,39.980067],[-0.042575,39.980162],[-0.042029,39.980574],[-0.041744,39.980467],[-0.041718,39.980501]]]}},{"type":"Feature","properties":{"CUSEC":"1204004006"},"geometry":{"type":"Polygon","coordinates":[[[-0.035627,39.98089],[-0.036811,39.978751],[-0.038758,39.979448],[-0.036577,39.981236],[-0.035627,39.98089]]]}},{"type":"Feature","properties":{"CUSEC":"1204004007"},"geometry":{"type":"Polygon","coordinates":[[[-0.042733,39.979038],[-0.043648,39.977692],[-0.044522,39.976792],[-0.045362,39.977078],[-0.044823,39.97757],[-0.045412,39.978033],[-0.043655,39.979347],[-0.042733,39.979038]]]}},{"type":"Feature","properties":{"CUSEC":"1204004008"},"geometry":{"type":"Polygon","coordinates":[[[-0.044522,39.976792],[-0.043318,39.976364],[-0.043471,39.976018],[-0.044859,39.975184],[-0.046214,39.976295],[-0.047582,39.975081],[-0.048487,39.975837],[-0.045412,39.978033],[-0.044823,39.97757],[-0.045362,39.977078],[-0.044522,39.976792]]]}},{"type":"Feature","properties":{"CUSEC":"1204004009"},"geometry":{"type":"Polygon","coordinates":[[[-0.039603,39.97976],[-0.038758,39.979448],[-0.0403,39.978213],[-0.041538,39.978629],[-0.040522,39.98008],[-0.039603,39.97976]]]}},{"type":"Feature","properties":{"CUSEC":"1204004010"},"geometry":{"type":"Polygon","coordinates":[[[-0.036585,39.98123],[-0.038758,39.979448],[-0.0396,39.97975],[-0.038196,39.981828],[-0.036585,39.98123]]]}},{"type":"Feature","properties":{"CUSEC":"1204004011"},"geometry":{"type":"Polygon","coordinates":[[[-0.032763,39.981448],[-0.031612,39.98107],[-0.032453,39.979732],[-0.03426,39.980389],[-0.033445,39.981672],[-0.032763,39.981448]]]}},{"type":"Feature","properties":{"CUSEC":"1204004012"},"geometry":{"type":"Polygon","coordinates":[[[-0.032453,39.979732],[-0.033743,39.977641],[-0.035529,39.978287],[-0.034622,39.979676],[-0.034727,39.979894],[-0.034614,39.979851],[-0.03426,39.980389],[-0.032453,39.979732]]]}},{"type":"Feature","properties":{"CUSEC":"1204004013"},"geometry":{"type":"Polygon","coordinates":[[[-0.041538,39.978629],[-0.0403,39.978213],[-0.041717,39.977084],[-0.043471,39.976018],[-0.043318,39.976364],[-0.044522,39.976792],[-0.043648,39.977692],[-0.042733,39.979038],[-0.041538,39.978629]]]}},{"type":"Feature","properties":{"CUSEC":"1204004014"},"geometry":{"type":"Polygon","coordinates":[[[-0.044859,39.975184],[-0.049396,39.972487],[-0.049842,39.972168],[-0.050021,39.971982],[-0.050339,39.972131],[-0.049686,39.973156],[-0.049135,39.97365],[-0.049078,39.973754],[-0.046214,39.976295],[-0.044859,39.975184]]]}},{"type":"Feature","properties":{"CUSEC":"1204004015"},"geometry":{"type":"Polygon","coordinates":[[[-0.030212,39.980596],[-0.029019,39.980243],[-0.029386,39.979471],[-0.030539,39.979911],[-0.031144,39.97855],[-0.031564,39.978689],[-0.031417,39.979032],[-0.031393,39.979311],[-0.031866,39.980201],[-0.032124,39.980274],[-0.031612,39.98107],[-0.030212,39.980596]]]}},{"type":"Feature","properties":{"CUSEC":"1204004016"},"geometry":{"type":"Polygon","coordinates":[[[-0.03426,39.980389],[-0.034614,39.979851],[-0.034727,39.979894],[-0.034622,39.979676],[-0.035529,39.978287],[-0.036811,39.978751],[-0.035627,39.98089],[-0.03426,39.980389]]]}},{"type":"Feature","properties":{"CUSEC":"1204004017"},"geometry":{"type":"Polygon","coordinates":[[[-0.036811,39.978751],[-0.035529,39.978287],[-0.036545,39.976801],[-0.036907,39.97697],[-0.040333,39.978186],[-0.038758,39.979448],[-0.036811,39.978751]]]}},{"type":"Feature","properties":{"CUSEC":"1204004018"},"geometry":{"type":"Polygon","coordinates":[[[-0.029386,39.979471],[-0.02725,39.978688],[-0.02898,39.975755],[-0.031211,39.976712],[-0.03374,39.977646],[-0.032124,39.980274],[-0.031866,39.980201],[-0.031393,39.979311],[-0.031417,39.979032],[-0.031564,39.978689],[-0.031144,39.97855],[-0.030539,39.979911],[-0.029386,39.979471]]]}},{"type":"Feature","properties":{"CUSEC":"1204004019"},"geometry":{"type":"Polygon","coordinates":[[[-0.03374,39.977646],[-0.031211,39.976712],[-0.02898,39.975755],[-0.02953,39.97482],[-0.029869,39.974486],[-0.032722,39.975567],[-0.034542,39.976187],[-0.03468,39.976126],[-0.036545,39.976801],[-0.035529,39.978287],[-0.03374,39.977646]]]}},{"type":"Feature","properties":{"CUSEC":"1204004020"},"geometry":{"type":"Polygon","coordinates":[[[-0.047582,39.975081],[-0.049686,39.973156],[-0.050339,39.972131],[-0.051352,39.972611],[-0.051282,39.972695],[-0.051361,39.972817],[-0.051369,39.973044],[-0.051222,39.973748],[-0.051342,39.97379],[-0.048487,39.975837],[-0.047582,39.975081]]]}},{"type":"Feature","properties":{"CUSEC":"1204004021"},"geometry":{"type":"Polygon","coordinates":[[[-0.036545,39.976801],[-0.038075,39.974122],[-0.034285,39.972804],[-0.034206,39.972698],[-0.041184,39.969773],[-0.043132,39.969085],[-0.043728,39.968931],[-0.044816,39.968801],[-0.045858,39.968775],[-0.048215,39.969276],[-0.051284,39.97009],[-0.050021,39.971982],[-0.049661,39.972307],[-0.042293,39.976717],[-0.041717,39.977084],[-0.040333,39.978186],[-0.036907,39.97697],[-0.036545,39.976801]]]}},{"type":"Feature","properties":{"CUSEC":"1204004022"},"geometry":{"type":"Polygon","coordinates":[[[-0.032722,39.975567],[-0.034285,39.972804],[-0.038075,39.974122],[-0.036544,39.976801],[-0.03468,39.976126],[-0.034542,39.976187],[-0.032722,39.975567]]]}},{"type":"Feature","properties":{"CUSEC":"1204005001"},"geometry":{"type":"Polygon","coordinates":[[[-0.03765,39.984102],[-0.037707,39.984022],[-0.037783,39.984054],[-0.03817,39.98369],[-0.038743,39.983421],[-0.039427,39.982845],[-0.03959,39.982911],[-0.039441,39.983365],[-0.041345,39.983864],[-0.041367,39.984087],[-0.041248,39.984347],[-0.041102,39.984312],[-0.040884,39.985012],[-0.040777,39.985021],[-0.03869,39.984438],[-0.038709,39.984408],[-0.03765,39.984102]]]}},{"type":"Feature","properties":{"CUSEC":"1204005002"},"geometry":{"type":"Polygon","coordinates":[[[-0.040722,39.985264],[-0.040777,39.985021],[-0.040884,39.985012],[-0.041102,39.984312],[-0.041248,39.984347],[-0.041367,39.984087],[-0.041345,39.983864],[-0.041887,39.983992],[-0.041896,39.984096],[-0.041929,39.983999],[-0.043582,39.984398],[-0.043642,39.98478],[-0.043188,39.985788],[-0.040722,39.985264]]]}},{"type":"Feature","properties":{"CUSEC":"1204005004"},"geometry":{"type":"Polygon","coordinates":[[[-0.041345,39.983864],[-0.039441,39.983365],[-0.039668,39.982708],[-0.040884,39.9815],[-0.042037,39.981885],[-0.042059,39.98185],[-0.043241,39.982263],[-0.043582,39.984398],[-0.041929,39.983999],[-0.041896,39.984096],[-0.041887,39.983992],[-0.041345,39.983864]]]}},{"type":"Feature","properties":{"CUSEC":"1204005005"},"geometry":{"type":"Polygon","coordinates":[[[-0.044332,39.986092],[-0.043194,39.985775],[-0.043584,39.984904],[-0.046619,39.985188],[-0.045859,39.986521],[-0.044332,39.986092]]]}},{"type":"Feature","properties":{"CUSEC":"1204005006"},"geometry":{"type":"Polygon","coordinates":[[[-0.047434,39.986964],[-0.048433,39.985391],[-0.051856,39.985787],[-0.053537,39.985933],[-0.052081,39.987946],[-0.050537,39.987431],[-0.049004,39.987254],[-0.047434,39.986964]]]}},{"type":"Feature","properties":{"CUSEC":"1204005007"},"geometry":{"type":"Polygon","coordinates":[[[-0.05236,39.987569],[-0.053537,39.985933],[-0.062902,39.98763],[-0.062201,39.98831],[-0.061447,39.988901],[-0.060218,39.989532],[-0.059394,39.98972],[-0.059564,39.989952],[-0.057851,39.990426],[-0.057566,39.990135],[-0.056892,39.989725],[-0.054549,39.989056],[-0.053622,39.988714],[-0.052867,39.988313],[-0.053153,39.987959],[-0.05236,39.987569]]]}},{"type":"Feature","properties":{"CUSEC":"1204005008"},"geometry":{"type":"Polygon","coordinates":[[[-0.0629,39.987631],[-0.053537,39.985933],[-0.056795,39.983174],[-0.058356,39.983609],[-0.058282,39.983746],[-0.060952,39.984486],[-0.060823,39.984611],[-0.062615,39.985147],[-0.062715,39.984978],[-0.065156,39.985715],[-0.063797,39.986978],[-0.062956,39.987642],[-0.0629,39.987631]]]}},{"type":"Feature","properties":{"CUSEC":"1204005009"},"geometry":{"type":"Polygon","coordinates":[[[-0.076299,39.991019],[-0.07602,39.990931],[-0.073013,39.990345],[-0.066474,39.988293],[-0.062958,39.98764],[-0.063797,39.986978],[-0.066563,39.984383],[-0.067728,39.98449],[-0.069348,39.984706],[-0.071129,39.985095],[-0.075314,39.986311],[-0.075535,39.986284],[-0.077989,39.987085],[-0.079833,39.987633],[-0.079366,39.988083],[-0.079402,39.988094],[-0.076299,39.991019]]]}},{"type":"Feature","properties":{"CUSEC":"1204005010"},"geometry":{"type":"Polygon","coordinates":[[[-0.157959,40.033023],[-0.157913,40.03302],[-0.157725,40.031887],[-0.154999,40.03142],[-0.154985,40.030745],[-0.151538,40.029992],[-0.149843,40.030769],[-0.147251,40.027724],[-0.143672,40.02483],[-0.142888,40.024012],[-0.142265,40.02302],[-0.141879,40.02267],[-0.141379,40.022382],[-0.140321,40.022009],[-0.132206,40.019377],[-0.131501,40.018907],[-0.126218,40.013999],[-0.121717,40.010158],[-0.120583,40.009461],[-0.120863,40.009462],[-0.119856,40.008986],[-0.114835,40.007221],[-0.108735,40.00459],[-0.10056,40.00063],[-0.09938,39.999819],[-0.097818,39.998478],[-0.094724,39.996489],[-0.091969,39.994799],[-0.091454,39.994672],[-0.091139,39.994741],[-0.089606,39.994086],[-0.089791,39.993084],[-0.089826,39.99227],[-0.089592,39.991526],[-0.089282,39.989579],[-0.089321,39.989334],[-0.088977,39.988099],[-0.088759,39.986999],[-0.088844,39.986543],[-0.088837,39.985932],[-0.089054,39.985505],[-0.089517,39.985131],[-0.090173,39.984082],[-0.091002,39.982499],[-0.091297,39.981768],[-0.091421,39.981186],[-0.091442,39.980702],[-0.091754,39.980354],[-0.092123,39.979472],[-0.09235,39.978027],[-0.09224,39.97749],[-0.092029,39.977001],[-0.091916,39.975776],[-0.091941,39.975178],[-0.092751,39.975601],[-0.09768,39.977823],[-0.098919,39.978431],[-0.100151,39.9792],[-0.103664,39.981126],[-0.104721,39.981594],[-0.105992,39.982013],[-0.107843,39.982528],[-0.108402,39.982605],[-0.10948,39.982595],[-0.111941,39.983089],[-0.112733,39.983199],[-0.11365,39.983105],[-0.116364,39.98374],[-0.117579,39.983797],[-0.120026,39.983804],[-0.121452,39.983867],[-0.122231,39.983994],[-0.12409,39.984896],[-0.124989,39.985243],[-0.130246,39.987769],[-0.13379,39.988992],[-0.13461,39.987022],[-0.135667,39.987786],[-0.139228,39.990865],[-0.140908,39.99214],[-0.142115,39.992963],[-0.143729,39.993841],[-0.147567,39.99562],[-0.147943,39.995863],[-0.149094,39.996909],[-0.150465,39.998033],[-0.151894,39.998852],[-0.152583,39.999184],[-0.153933,39.999677],[-0.155825,40.000102],[-0.158054,40.001417],[-0.15856,40.001934],[-0.159387,40.003459],[-0.159484,40.004785],[-0.159254,40.006104],[-0.158947,40.007276],[-0.158463,40.00849],[-0.158221,40.009826],[-0.158236,40.010853],[-0.158333,40.01136],[-0.159442,40.014261],[-0.160102,40.01643],[-0.160438,40.017095],[-0.161012,40.018776],[-0.161204,40.019799],[-0.161243,40.025366],[-0.161345,40.025729],[-0.161534,40.025977],[-0.163045,40.027104],[-0.16352,40.02753],[-0.164364,40.02865],[-0.164406,40.029038],[-0.164108,40.029454],[-0.163757,40.029716],[-0.159384,40.031473],[-0.158736,40.031844],[-0.158394,40.032178],[-0.157959,40.033023]]]}},{"type":"Feature","properties":{"CUSEC":"1204005011"},"geometry":{"type":"Polygon","coordinates":[[[-0.046619,39.985188],[-0.043584,39.984904],[-0.043642,39.98478],[-0.043245,39.982288],[-0.048284,39.983852],[-0.048314,39.983824],[-0.049235,39.984107],[-0.048433,39.985391],[-0.046619,39.985188]]]}},{"type":"Feature","properties":{"CUSEC":"1204005012"},"geometry":{"type":"Polygon","coordinates":[[[-0.048433,39.985391],[-0.049235,39.984107],[-0.050439,39.984469],[-0.054881,39.979486],[-0.055602,39.97958],[-0.057832,39.980019],[-0.05885,39.981428],[-0.053537,39.985933],[-0.051856,39.985787],[-0.048433,39.985391]]]}},{"type":"Feature","properties":{"CUSEC":"1204005013"},"geometry":{"type":"Polygon","coordinates":[[[-0.045859,39.986521],[-0.046619,39.985188],[-0.048433,39.985391],[-0.047434,39.986964],[-0.045859,39.986521]]]}},{"type":"Feature","properties":{"CUSEC":"1204005014"},"geometry":{"type":"Polygon","coordinates":[[[-0.08364,39.983768],[-0.085127,39.984248],[-0.086646,39.984668],[-0.08714,39.98529],[-0.08759,39.985483],[-0.088181,39.985574],[-0.088805,39.985475],[-0.089489,39.985154],[-0.089054,39.985505],[-0.088837,39.985932],[-0.088844,39.986543],[-0.088759,39.986999],[-0.088977,39.988099],[-0.089321,39.989334],[-0.089282,39.989579],[-0.089592,39.991526],[-0.089826,39.99227],[-0.089791,39.993084],[-0.089606,39.994086],[-0.088224,39.993505],[-0.085759,39.992734],[-0.08355,39.99159],[-0.082896,39.991339],[-0.082548,39.991279],[-0.081946,39.99127],[-0.080303,39.991695],[-0.079374,39.991702],[-0.0763,39.991019],[-0.079402,39.988094],[-0.079366,39.988083],[-0.079833,39.987633],[-0.077989,39.987085],[-0.075535,39.986284],[-0.075314,39.986311],[-0.071129,39.985095],[-0.069348,39.984706],[-0.067728,39.98449],[-0.066563,39.984383],[-0.067817,39.983162],[-0.072169,39.978499],[-0.072718,39.978585],[-0.073666,39.978837],[-0.076052,39.979862],[-0.075168,39.980994],[-0.074931,39.981198],[-0.074565,39.98164],[-0.078455,39.982884],[-0.081075,39.983199],[-0.082795,39.983512],[-0.08364,39.983768]]]}},{"type":"Feature","properties":{"CUSEC":"1204005015"},"geometry":{"type":"Polygon","coordinates":[[[-0.056795,39.983174],[-0.058937,39.981354],[-0.061556,39.982551],[-0.062168,39.98274],[-0.062581,39.982735],[-0.062985,39.982573],[-0.063443,39.982257],[-0.06595,39.979374],[-0.066099,39.979262],[-0.066336,39.979182],[-0.066738,39.979218],[-0.070467,39.980342],[-0.067536,39.98345],[-0.065156,39.985715],[-0.062715,39.984978],[-0.062615,39.985147],[-0.060823,39.984611],[-0.060952,39.984486],[-0.058282,39.983746],[-0.058356,39.983609],[-0.056795,39.983174]]]}},{"type":"Feature","properties":{"CUSEC":"1204006001"},"geometry":{"type":"Polygon","coordinates":[[[-0.043245,39.982288],[-0.042059,39.98185],[-0.042037,39.981885],[-0.040885,39.981501],[-0.041473,39.98093],[-0.04142,39.980913],[-0.041744,39.980467],[-0.042029,39.980574],[-0.042575,39.980162],[-0.042732,39.980067],[-0.042758,39.9801],[-0.043637,39.979362],[-0.044949,39.979819],[-0.043478,39.982356],[-0.043245,39.982288]]]}},{"type":"Feature","properties":{"CUSEC":"1204006002"},"geometry":{"type":"Polygon","coordinates":[[[-0.043478,39.982356],[-0.044369,39.980843],[-0.046725,39.981706],[-0.045907,39.983111],[-0.043478,39.982356]]]}},{"type":"Feature","properties":{"CUSEC":"1204006003"},"geometry":{"type":"Polygon","coordinates":[[[-0.046725,39.981706],[-0.044369,39.980843],[-0.044949,39.979819],[-0.048225,39.980972],[-0.047584,39.982025],[-0.046725,39.981706]]]}},{"type":"Feature","properties":{"CUSEC":"1204006004"},"geometry":{"type":"Polygon","coordinates":[[[-0.048225,39.980972],[-0.047319,39.98065],[-0.047733,39.979935],[-0.048644,39.980235],[-0.049983,39.978035],[-0.05158,39.978606],[-0.05079,39.979975],[-0.049842,39.979623],[-0.048965,39.981172],[-0.048251,39.980929],[-0.048225,39.980972]]]}},{"type":"Feature","properties":{"CUSEC":"1204006005"},"geometry":{"type":"Polygon","coordinates":[[[-0.08364,39.983768],[-0.082795,39.983512],[-0.081075,39.983199],[-0.078455,39.982884],[-0.074565,39.98164],[-0.074931,39.981198],[-0.075168,39.980994],[-0.076052,39.979862],[-0.073666,39.978837],[-0.072718,39.978585],[-0.072169,39.978499],[-0.070467,39.980342],[-0.066738,39.979218],[-0.066474,39.979174],[-0.066178,39.979224],[-0.06595,39.979374],[-0.063443,39.982257],[-0.062985,39.982573],[-0.062581,39.982735],[-0.062168,39.98274],[-0.061556,39.982551],[-0.058937,39.981354],[-0.05885,39.981428],[-0.057832,39.980019],[-0.055602,39.97958],[-0.053049,39.979157],[-0.05431,39.977855],[-0.054257,39.977891],[-0.052822,39.977392],[-0.051981,39.977039],[-0.052601,39.975899],[-0.052803,39.975354],[-0.053292,39.974481],[-0.056107,39.975955],[-0.056154,39.97583],[-0.059442,39.972461],[-0.059633,39.972158],[-0.060316,39.97139],[-0.061232,39.970492],[-0.062342,39.969292],[-0.063089,39.968581],[-0.061566,39.968104],[-0.060891,39.967958],[-0.060581,39.967964],[-0.059837,39.967821],[-0.059706,39.967635],[-0.059719,39.96747],[-0.059947,39.967363],[-0.060193,39.967412],[-0.070582,39.960004],[-0.071552,39.960964],[-0.072705,39.961656],[-0.075263,39.963712],[-0.079445,39.967231],[-0.082502,39.96965],[-0.083707,39.9705],[-0.084626,39.970911],[-0.085031,39.971299],[-0.085138,39.971536],[-0.085372,39.97183],[-0.085872,39.972167],[-0.087384,39.972962],[-0.089979,39.974153],[-0.091941,39.975178],[-0.091916,39.975776],[-0.092029,39.977001],[-0.09224,39.97749],[-0.09235,39.978027],[-0.092123,39.979472],[-0.091754,39.980354],[-0.091442,39.980702],[-0.091421,39.981186],[-0.091297,39.981768],[-0.091002,39.982499],[-0.090173,39.984082],[-0.089517,39.985131],[-0.088805,39.985475],[-0.088181,39.985574],[-0.08759,39.985483],[-0.08714,39.98529],[-0.086646,39.984668],[-0.085127,39.984248],[-0.08364,39.983768]]]}},{"type":"Feature","properties":{"CUSEC":"1204006006"},"geometry":{"type":"Polygon","coordinates":[[[-0.049235,39.984107],[-0.048314,39.983824],[-0.049417,39.982723],[-0.047584,39.982025],[-0.048251,39.980929],[-0.050433,39.981692],[-0.053049,39.979157],[-0.054886,39.979485],[-0.050439,39.984469],[-0.049235,39.984107]]]}},{"type":"Feature","properties":{"CUSEC":"1204006007"},"geometry":{"type":"Polygon","coordinates":[[[-0.044949,39.979819],[-0.043637,39.979362],[-0.045376,39.978058],[-0.049177,39.979323],[-0.048644,39.980235],[-0.047733,39.979935],[-0.047319,39.98065],[-0.044949,39.979819]]]}},{"type":"Feature","properties":{"CUSEC":"1204006008"},"geometry":{"type":"Polygon","coordinates":[[[-0.05158,39.978606],[-0.049933,39.978017],[-0.050827,39.976644],[-0.052053,39.977063],[-0.052822,39.977392],[-0.053689,39.977695],[-0.054257,39.977891],[-0.05431,39.977855],[-0.053064,39.979143],[-0.05158,39.978606]]]}},{"type":"Feature","properties":{"CUSEC":"1204006009"},"geometry":{"type":"Polygon","coordinates":[[[-0.050339,39.972131],[-0.050021,39.971982],[-0.051284,39.97009],[-0.047612,39.969142],[-0.047672,39.968781],[-0.047371,39.967918],[-0.047316,39.967541],[-0.047212,39.967271],[-0.047097,39.966236],[-0.047443,39.964377],[-0.047113,39.964198],[-0.047555,39.96386],[-0.047971,39.963262],[-0.048379,39.96226],[-0.048647,39.960796],[-0.049018,39.960019],[-0.049605,39.959391],[-0.050418,39.958864],[-0.050712,39.958441],[-0.05104,39.957013],[-0.050883,39.956749],[-0.050964,39.956724],[-0.05138,39.956967],[-0.051481,39.956887],[-0.051746,39.956319],[-0.052333,39.956088],[-0.053465,39.955816],[-0.053019,39.955435],[-0.052905,39.955207],[-0.052943,39.955139],[-0.053341,39.95519],[-0.05389,39.95502],[-0.054103,39.955025],[-0.054181,39.954884],[-0.054306,39.955056],[-0.05487,39.955286],[-0.055635,39.955459],[-0.056822,39.955624],[-0.057108,39.955621],[-0.05702,39.955532],[-0.057652,39.955574],[-0.059135,39.955833],[-0.059722,39.956092],[-0.060048,39.956163],[-0.060294,39.956139],[-0.060493,39.956062],[-0.060994,39.956147],[-0.061306,39.955886],[-0.061466,39.955867],[-0.062367,39.956264],[-0.062728,39.956492],[-0.066101,39.957766],[-0.069587,39.959208],[-0.070582,39.960004],[-0.060193,39.967412],[-0.059991,39.96736],[-0.059778,39.96742],[-0.059693,39.967551],[-0.059758,39.967726],[-0.051339,39.973789],[-0.051222,39.973748],[-0.051369,39.973044],[-0.051361,39.972817],[-0.051282,39.972695],[-0.051352,39.972611],[-0.050339,39.972131]]]}},{"type":"Feature","properties":{"CUSEC":"1204006010"},"geometry":{"type":"Polygon","coordinates":[[[-0.045907,39.983111],[-0.046725,39.981706],[-0.049417,39.982723],[-0.048284,39.983852],[-0.045907,39.983111]]]}},{"type":"Feature","properties":{"CUSEC":"1204006011"},"geometry":{"type":"Polygon","coordinates":[[[-0.050827,39.976644],[-0.048513,39.975818],[-0.049611,39.975038],[-0.05254,39.976009],[-0.051981,39.977039],[-0.050827,39.976644]]]}},{"type":"Feature","properties":{"CUSEC":"1204006012"},"geometry":{"type":"Polygon","coordinates":[[[-0.045376,39.978058],[-0.047121,39.976806],[-0.047168,39.977004],[-0.049983,39.978035],[-0.049177,39.979323],[-0.045376,39.978058]]]}},{"type":"Feature","properties":{"CUSEC":"1204006013"},"geometry":{"type":"Polygon","coordinates":[[[-0.05975,39.967732],[-0.059837,39.967821],[-0.060581,39.967964],[-0.060891,39.967958],[-0.061566,39.968104],[-0.063089,39.968581],[-0.062342,39.969292],[-0.061232,39.970492],[-0.060316,39.97139],[-0.059633,39.972158],[-0.059442,39.972461],[-0.056759,39.975221],[-0.052333,39.973082],[-0.05975,39.967732]]]}},{"type":"Feature","properties":{"CUSEC":"1204006014"},"geometry":{"type":"Polygon","coordinates":[[[-0.048965,39.981172],[-0.049842,39.979623],[-0.05079,39.979975],[-0.05158,39.978606],[-0.053064,39.979143],[-0.050433,39.981692],[-0.048965,39.981172]]]}},{"type":"Feature","properties":{"CUSEC":"1204006015"},"geometry":{"type":"Polygon","coordinates":[[[-0.049611,39.975038],[-0.051256,39.973851],[-0.053292,39.974481],[-0.052803,39.975354],[-0.05254,39.976009],[-0.049611,39.975038]]]}},{"type":"Feature","properties":{"CUSEC":"1204006016"},"geometry":{"type":"Polygon","coordinates":[[[-0.047121,39.976806],[-0.048513,39.975818],[-0.050827,39.976644],[-0.049933,39.978017],[-0.047168,39.977004],[-0.047121,39.976806]]]}},{"type":"Feature","properties":{"CUSEC":"1204006017"},"geometry":{"type":"Polygon","coordinates":[[[-0.052333,39.973082],[-0.056759,39.975221],[-0.056154,39.97583],[-0.056107,39.975955],[-0.053451,39.974547],[-0.052598,39.974244],[-0.051256,39.973851],[-0.052333,39.973082]]]}},{"type":"Feature","properties":{"CUSEC":"1204007001"},"geometry":{"type":"Polygon","coordinates":[[[-0.030942,39.989063],[-0.0313,39.988281],[-0.034171,39.98875],[-0.03417,39.988999],[-0.032088,39.990223],[-0.030942,39.989063]]]}},{"type":"Feature","properties":{"CUSEC":"1204007003"},"geometry":{"type":"Polygon","coordinates":[[[-0.033778,39.991795],[-0.034048,39.990617],[-0.034168,39.989365],[-0.034189,39.988516],[-0.034228,39.988366],[-0.034357,39.988233],[-0.034539,39.988212],[-0.034895,39.988315],[-0.03722,39.988684],[-0.036692,39.989914],[-0.036527,39.990581],[-0.036438,39.991349],[-0.036335,39.991484],[-0.033778,39.991795]]]}},{"type":"Feature","properties":{"CUSEC":"1204007004"},"geometry":{"type":"Polygon","coordinates":[[[-0.035456,39.993849],[-0.035048,39.991631],[-0.036321,39.991465],[-0.036441,39.992133],[-0.036895,39.993841],[-0.035456,39.993849]]]}},{"type":"Feature","properties":{"CUSEC":"1204007007"},"geometry":{"type":"Polygon","coordinates":[[[-0.036895,39.993841],[-0.036441,39.992133],[-0.036335,39.991484],[-0.036438,39.991349],[-0.036566,39.990423],[-0.037209,39.990592],[-0.039666,39.991077],[-0.038922,39.992147],[-0.038283,39.993281],[-0.037673,39.994943],[-0.037685,39.995516],[-0.037311,39.995522],[-0.036895,39.993841]]]}},{"type":"Feature","properties":{"CUSEC":"1204007008"},"geometry":{"type":"Polygon","coordinates":[[[-0.036566,39.990423],[-0.036692,39.989914],[-0.037181,39.988811],[-0.038527,39.989094],[-0.038737,39.989192],[-0.039969,39.989505],[-0.040614,39.98975],[-0.039666,39.991077],[-0.037209,39.990592],[-0.036566,39.990423]]]}},{"type":"Feature","properties":{"CUSEC":"1204007009"},"geometry":{"type":"Polygon","coordinates":[[[-0.033221,39.993642],[-0.03329,39.992959],[-0.033758,39.992071],[-0.033777,39.991795],[-0.035044,39.991613],[-0.035455,39.993854],[-0.033221,39.993642]]]}},{"type":"Feature","properties":{"CUSEC":"1204007010"},"geometry":{"type":"Polygon","coordinates":[[[0.013306,40.031165],[0.013984,40.029461],[0.001012,40.024409],[-0.00022,40.023776],[-0.001514,40.022934],[-0.001924,40.022532],[-0.002347,40.021849],[-0.002499,40.02137],[-0.002515,40.020988],[-0.002291,40.019824],[-0.003073,40.019301],[-0.00184,40.017276],[-0.001895,40.017217],[-0.002712,40.017098],[-0.003335,40.016923],[-0.002123,40.013197],[-0.002329,40.0112],[-0.002411,40.011122],[-0.00287,40.011093],[-0.002913,40.011014],[-0.002944,40.009102],[-0.00623,40.008785],[-0.005775,40.004828],[-0.00572,40.002491],[-0.005697,40.00242],[-0.005581,40.002377],[-0.004165,40.002139],[-0.003979,40.000715],[-0.003987,40.000514],[-0.004243,40.000058],[-0.004238,39.999876],[-0.003719,39.999178],[-0.003373,39.997801],[-0.00332,39.997216],[-0.00322,39.99682],[-0.004025,39.995043],[-0.004475,39.994338],[-0.00456,39.994308],[-0.005154,39.994387],[-0.005281,39.993641],[-0.00525,39.993382],[-0.005031,39.992893],[-0.004361,39.99215],[-0.003921,39.991421],[-0.002951,39.991113],[-0.002871,39.991048],[-0.002865,39.990911],[-0.003364,39.990067],[-0.003988,39.988252],[-0.003988,39.98797],[-0.003732,39.987872],[-0.003855,39.986154],[-0.004042,39.985073],[-0.004447,39.984172],[-0.00434,39.983016],[-0.004625,39.982194],[-0.004814,39.981355],[-0.00476,39.980954],[-0.004587,39.980508],[-0.004506,39.980025],[-0.004591,39.978909],[-0.004162,39.977875],[-0.004164,39.977453],[-0.00428,39.977252],[-0.004625,39.976886],[-0.004973,39.975969],[-0.00522,39.975531],[-0.005552,39.97526],[-0.006544,39.974666],[-0.006589,39.974601],[-0.005797,39.974438],[-0.004107,39.973968],[-0.004571,39.973341],[-0.004992,39.972547],[-0.0052,39.971325],[-0.005567,39.97018],[-0.005771,39.969166],[-0.006171,39.968829],[-0.006794,39.967936],[-0.007229,39.967109],[-0.007639,39.965924],[-0.009216,39.966322],[-0.010569,39.963608],[-0.010506,39.963535],[-0.010168,39.963373],[-0.01113,39.961722],[-0.011929,39.961364],[-0.01394,39.960607],[-0.013894,39.96053],[-0.019787,39.958264],[-0.038022,39.951023],[-0.039022,39.950682],[-0.039501,39.950967],[-0.041855,39.951478],[-0.042593,39.95038],[-0.044629,39.950657],[-0.046222,39.951445],[-0.046708,39.951574],[-0.047371,39.951663],[-0.050221,39.952898],[-0.052328,39.95315],[-0.053004,39.95378],[-0.053515,39.954135],[-0.053986,39.954615],[-0.054181,39.954884],[-0.054168,39.954979],[-0.054103,39.955025],[-0.05389,39.95502],[-0.053341,39.95519],[-0.052943,39.955139],[-0.052905,39.955207],[-0.053019,39.955435],[-0.053465,39.955816],[-0.052333,39.956088],[-0.051746,39.956319],[-0.051481,39.956887],[-0.05138,39.956967],[-0.050964,39.956724],[-0.050883,39.956749],[-0.05104,39.957013],[-0.050712,39.958441],[-0.050418,39.958864],[-0.049752,39.959278],[-0.049234,39.959751],[-0.049018,39.960019],[-0.048784,39.960492],[-0.048647,39.960796],[-0.048379,39.96226],[-0.047971,39.963262],[-0.047555,39.96386],[-0.047113,39.964198],[-0.047443,39.964377],[-0.047097,39.966236],[-0.047212,39.967271],[-0.047316,39.967541],[-0.047371,39.967918],[-0.047672,39.968781],[-0.047612,39.969142],[-0.045858,39.968775],[-0.044265,39.96885],[-0.043728,39.968931],[-0.043132,39.969085],[-0.041184,39.969773],[-0.034206,39.972698],[-0.034285,39.972804],[-0.032722,39.975567],[-0.029869,39.974486],[-0.02953,39.97482],[-0.027249,39.978688],[-0.026297,39.980455],[-0.025577,39.981597],[-0.02552,39.982099],[-0.024506,39.984359],[-0.024763,39.98441],[-0.02383,39.986993],[-0.023764,39.987296],[-0.023816,39.98743],[-0.023563,39.987824],[-0.023063,39.989259],[-0.023027,39.989254],[-0.022319,39.992217],[-0.0223,39.992653],[-0.022369,39.993415],[-0.022785,39.994281],[-0.023262,39.994809],[-0.026724,39.998262],[-0.028471,39.999896],[-0.029084,40.000242],[-0.03136,40.001075],[-0.032661,40.000053],[-0.03388,39.999391],[-0.035353,39.998974],[-0.036161,39.998697],[-0.036671,39.998483],[-0.03693,39.99828],[-0.038537,39.997653],[-0.040929,40.000643],[-0.041029,40.000701],[-0.042146,40.002168],[-0.042446,40.002679],[-0.042568,40.003001],[-0.042705,40.002977],[-0.043175,40.003426],[-0.043588,40.004253],[-0.043963,40.005592],[-0.04453,40.006852],[-0.046817,40.010494],[-0.048997,40.01006],[-0.050967,40.009726],[-0.050219,40.008622],[-0.049551,40.007748],[-0.050516,40.008577],[-0.051026,40.008888],[-0.052815,40.00958],[-0.048664,40.01355],[-0.047491,40.014377],[-0.047623,40.015027],[-0.047756,40.017216],[-0.04786,40.017954],[-0.047724,40.018999],[-0.048361,40.02059],[-0.047609,40.021824],[-0.04791,40.023675],[-0.047838,40.024019],[-0.047963,40.024362],[-0.048777,40.02484],[-0.04858,40.02501],[-0.048298,40.025402],[-0.048173,40.026535],[-0.048251,40.027503],[-0.047202,40.027602],[-0.043898,40.028139],[-0.04104,40.030282],[-0.042052,40.033425],[-0.040254,40.038711],[-0.036094,40.041667],[-0.032612,40.043326],[-0.028269,40.044827],[-0.02086,40.047014],[-0.016808,40.048027],[-0.015406,40.04981],[-0.013765,40.052218],[-0.009907,40.05655],[-0.004302,40.064061],[-0.003302,40.064414],[0.000127,40.058938],[0.004098,40.051665],[0.006623,40.048582],[0.009525,40.043147],[0.010582,40.038409],[0.012118,40.034162],[0.013306,40.031165]]]}},{"type":"Feature","properties":{"CUSEC":"1204007011"},"geometry":{"type":"Polygon","coordinates":[[[-0.022582,39.99118],[-0.028431,39.99142],[-0.028757,39.990409],[-0.030532,39.989272],[-0.030942,39.989063],[-0.032088,39.990223],[-0.030251,39.991311],[-0.030153,39.991299],[-0.029816,39.991477],[-0.023606,39.99512],[-0.022785,39.994281],[-0.022369,39.993415],[-0.0223,39.992653],[-0.022319,39.992217],[-0.022582,39.99118]]]}},{"type":"Feature","properties":{"CUSEC":"1204007012"},"geometry":{"type":"Polygon","coordinates":[[[-0.022582,39.99118],[-0.023027,39.989254],[-0.026383,39.989722],[-0.026376,39.989812],[-0.027992,39.990134],[-0.027838,39.990623],[-0.028636,39.990785],[-0.028431,39.99142],[-0.022582,39.99118]]]}},{"type":"Feature","properties":{"CUSEC":"1204007013"},"geometry":{"type":"Polygon","coordinates":[[[-0.030345,39.991256],[-0.03417,39.988999],[-0.034048,39.990617],[-0.033777,39.99179],[-0.033787,39.991969],[-0.03329,39.992959],[-0.033221,39.993642],[-0.033064,39.993629],[-0.033032,39.994121],[-0.032092,39.99304],[-0.030345,39.991256]]]}},{"type":"Feature","properties":{"CUSEC":"1204007014"},"geometry":{"type":"Polygon","coordinates":[[[-0.032905,39.996506],[-0.035063,39.996264],[-0.035467,39.996757],[-0.036542,39.996658],[-0.036403,39.995519],[-0.036209,39.994553],[-0.035538,39.994442],[-0.035455,39.993854],[-0.036895,39.993841],[-0.037311,39.995522],[-0.037414,39.995522],[-0.037696,39.996556],[-0.038537,39.997653],[-0.03693,39.99828],[-0.036671,39.998483],[-0.036161,39.998697],[-0.035353,39.998974],[-0.03388,39.999391],[-0.033345,39.999657],[-0.032632,40.0001],[-0.032905,39.996506]]]}},{"type":"Feature","properties":{"CUSEC":"1204007016"},"geometry":{"type":"Polygon","coordinates":[[[-0.032905,39.996506],[-0.033064,39.993629],[-0.035455,39.993854],[-0.035538,39.994442],[-0.036209,39.994553],[-0.036403,39.995519],[-0.036542,39.996658],[-0.035467,39.996757],[-0.035063,39.996264],[-0.032905,39.996506]]]}},{"type":"Feature","properties":{"CUSEC":"1204007017"},"geometry":{"type":"Polygon","coordinates":[[[-0.023606,39.99512],[-0.029816,39.991477],[-0.030153,39.991299],[-0.030251,39.991311],[-0.030345,39.991256],[-0.032092,39.99304],[-0.033032,39.994121],[-0.032632,40.0001],[-0.03136,40.001075],[-0.029084,40.000242],[-0.028471,39.999896],[-0.026724,39.998262],[-0.023606,39.99512]]]}},{"type":"Feature","properties":{"CUSEC":"1204007018"},"geometry":{"type":"Polygon","coordinates":[[[-0.023063,39.989259],[-0.023563,39.987824],[-0.023816,39.98743],[-0.023798,39.9873],[-0.02532,39.987451],[-0.025432,39.987309],[-0.025561,39.987297],[-0.025703,39.987364],[-0.02574,39.987473],[-0.027015,39.987584],[-0.0313,39.988281],[-0.030942,39.989063],[-0.030532,39.989272],[-0.028757,39.990409],[-0.028636,39.990785],[-0.027838,39.990623],[-0.027992,39.990134],[-0.026376,39.989812],[-0.026383,39.989722],[-0.023063,39.989259]]]}},{"type":"Feature","properties":{"CUSEC":"1204008001"},"geometry":{"type":"Polygon","coordinates":[[[-0.039666,39.991077],[-0.040614,39.98975],[-0.044173,39.991263],[-0.044179,39.99139],[-0.043971,39.991653],[-0.042737,39.991632],[-0.03925,39.99169],[-0.039666,39.991077]]]}},{"type":"Feature","properties":{"CUSEC":"1204008002"},"geometry":{"type":"Polygon","coordinates":[[[-0.03925,39.99169],[-0.040225,39.991679],[-0.041351,39.994281],[-0.037857,39.994428],[-0.038283,39.993281],[-0.03864,39.992607],[-0.03925,39.99169]]]}},{"type":"Feature","properties":{"CUSEC":"1204008003"},"geometry":{"type":"Polygon","coordinates":[[[-0.040225,39.991679],[-0.043224,39.99163],[-0.043304,39.99168],[-0.043381,39.991768],[-0.043484,39.99223],[-0.042555,39.994223],[-0.041351,39.994281],[-0.040225,39.991679]]]}},{"type":"Feature","properties":{"CUSEC":"1204008004"},"geometry":{"type":"Polygon","coordinates":[[[-0.043175,40.003426],[-0.045746,39.999279],[-0.047293,39.99723],[-0.047347,39.996861],[-0.047233,39.994205],[-0.048056,39.99501],[-0.050236,39.997382],[-0.050538,39.997268],[-0.052927,40.000241],[-0.055527,40.004789],[-0.056941,40.007657],[-0.058517,40.009302],[-0.059278,40.00986],[-0.060105,40.010611],[-0.060738,40.010673],[-0.061044,40.010776],[-0.061376,40.010979],[-0.061834,40.011098],[-0.062663,40.011851],[-0.063541,40.012226],[-0.0637,40.012493],[-0.063742,40.012756],[-0.063514,40.014102],[-0.063541,40.014836],[-0.064311,40.015995],[-0.064728,40.016857],[-0.067245,40.020603],[-0.070016,40.024135],[-0.068928,40.024263],[-0.063322,40.026301],[-0.059064,40.02585],[-0.055391,40.027622],[-0.053535,40.026656],[-0.051122,40.0269],[-0.049296,40.027403],[-0.048251,40.027503],[-0.048173,40.026535],[-0.048298,40.025402],[-0.04858,40.02501],[-0.048777,40.02484],[-0.047963,40.024362],[-0.047838,40.024019],[-0.04791,40.023675],[-0.047609,40.021824],[-0.048361,40.02059],[-0.047724,40.018999],[-0.04786,40.017954],[-0.047756,40.017216],[-0.047623,40.015027],[-0.047491,40.014377],[-0.048664,40.01355],[-0.052815,40.00958],[-0.051026,40.008888],[-0.050516,40.008577],[-0.049551,40.007748],[-0.050219,40.008622],[-0.050967,40.009726],[-0.048997,40.01006],[-0.046817,40.010494],[-0.04453,40.006852],[-0.043963,40.005592],[-0.043588,40.004253],[-0.043175,40.003426]]]}},{"type":"Feature","properties":{"CUSEC":"1204008005"},"geometry":{"type":"Polygon","coordinates":[[[-0.038537,39.997653],[-0.037696,39.996556],[-0.037414,39.995532],[-0.037685,39.995516],[-0.037673,39.994943],[-0.037857,39.994428],[-0.042537,39.994224],[-0.042397,39.994814],[-0.041707,39.995092],[-0.04143,39.995147],[-0.040469,39.995809],[-0.039683,39.996691],[-0.038537,39.997653]]]}},{"type":"Feature","properties":{"CUSEC":"1204008006"},"geometry":{"type":"Polygon","coordinates":[[[-0.038545,39.997662],[-0.039683,39.996691],[-0.040469,39.995809],[-0.04143,39.995147],[-0.041707,39.995092],[-0.042397,39.994814],[-0.042537,39.994224],[-0.043484,39.99223],[-0.043381,39.991768],[-0.043256,39.99165],[-0.044478,39.991677],[-0.045408,39.99179],[-0.048514,39.993336],[-0.048159,39.993767],[-0.04753,39.994009],[-0.047224,39.994071],[-0.047347,39.996861],[-0.047308,39.997196],[-0.045746,39.999279],[-0.043175,40.003426],[-0.042705,40.002977],[-0.042568,40.003001],[-0.042446,40.002679],[-0.042146,40.002168],[-0.041029,40.000701],[-0.040929,40.000643],[-0.038545,39.997662]]]}},{"type":"Feature","properties":{"CUSEC":"1204008007"},"geometry":{"type":"Polygon","coordinates":[[[-0.047233,39.994205],[-0.047224,39.994071],[-0.04753,39.994009],[-0.048159,39.993767],[-0.048765,39.992959],[-0.04915,39.992562],[-0.049578,39.992343],[-0.050648,39.992041],[-0.052445,39.991719],[-0.053707,39.99156],[-0.054451,39.99135],[-0.054912,39.992083],[-0.055485,39.992604],[-0.058193,39.993856],[-0.059092,39.99412],[-0.06008,39.994483],[-0.061407,39.994999],[-0.062485,39.995494],[-0.065036,39.991975],[-0.065615,39.991084],[-0.066664,39.989681],[-0.067539,39.988622],[-0.073013,39.990345],[-0.07602,39.990931],[-0.079374,39.991702],[-0.080303,39.991695],[-0.081946,39.99127],[-0.082548,39.991279],[-0.082896,39.991339],[-0.08355,39.99159],[-0.085759,39.992734],[-0.088224,39.993505],[-0.091139,39.994741],[-0.091454,39.994672],[-0.091969,39.994799],[-0.094724,39.996489],[-0.097818,39.998478],[-0.09938,39.999819],[-0.10056,40.00063],[-0.108735,40.00459],[-0.114835,40.007221],[-0.119856,40.008986],[-0.120863,40.009462],[-0.12047,40.00946],[-0.120245,40.009509],[-0.118996,40.009406],[-0.118633,40.009415],[-0.115711,40.00981],[-0.114319,40.009757],[-0.111737,40.010152],[-0.111039,40.010315],[-0.107638,40.010699],[-0.105405,40.010868],[-0.097289,40.012196],[-0.091655,40.013577],[-0.091047,40.013823],[-0.087075,40.01575],[-0.080607,40.02019],[-0.076879,40.022437],[-0.07635,40.023019],[-0.075416,40.023499],[-0.070016,40.024135],[-0.067245,40.020603],[-0.064728,40.016857],[-0.064311,40.015995],[-0.063541,40.014836],[-0.063514,40.014102],[-0.063742,40.012756],[-0.0637,40.012493],[-0.063541,40.012226],[-0.062663,40.011851],[-0.061834,40.011098],[-0.061376,40.010979],[-0.061044,40.010776],[-0.060738,40.010673],[-0.060105,40.010611],[-0.059278,40.00986],[-0.058517,40.009302],[-0.056941,40.007657],[-0.055527,40.004789],[-0.052927,40.000241],[-0.050538,39.997268],[-0.050236,39.997382],[-0.048056,39.99501],[-0.047233,39.994205]]]}},{"type":"Feature","properties":{"CUSEC":"1204008008"},"geometry":{"type":"Polygon","coordinates":[[[-0.054451,39.99135],[-0.056086,39.990886],[-0.059759,39.991655],[-0.062223,39.992245],[-0.063469,39.992487],[-0.064464,39.992758],[-0.062485,39.995494],[-0.061407,39.994999],[-0.06008,39.994483],[-0.059092,39.99412],[-0.058193,39.993856],[-0.055485,39.992604],[-0.054912,39.992083],[-0.054451,39.99135]]]}},{"type":"Feature","properties":{"CUSEC":"1204008009"},"geometry":{"type":"Polygon","coordinates":[[[-0.056086,39.990886],[-0.059564,39.989952],[-0.059394,39.98972],[-0.060147,39.989552],[-0.060387,39.989455],[-0.061447,39.988901],[-0.061938,39.988528],[-0.062951,39.988624],[-0.063378,39.988895],[-0.064517,39.992681],[-0.064464,39.992758],[-0.063469,39.992487],[-0.062223,39.992245],[-0.059759,39.991655],[-0.056086,39.990886]]]}},{"type":"Feature","properties":{"CUSEC":"1204008010"},"geometry":{"type":"Polygon","coordinates":[[[-0.061938,39.988528],[-0.0629,39.987631],[-0.066474,39.988293],[-0.067539,39.988622],[-0.066664,39.989681],[-0.065615,39.991084],[-0.064517,39.992681],[-0.063378,39.988895],[-0.062951,39.988624],[-0.061938,39.988528]]]}},{"type":"Feature","properties":{"CUSEC":"1204009001"},"geometry":{"type":"Polygon","coordinates":[[[0.688666,39.900407],[0.68875,39.900216],[0.688705,39.899812],[0.688449,39.899415],[0.688472,39.89918],[0.688372,39.898841],[0.688127,39.898632],[0.68685,39.898376],[0.686439,39.898119],[0.686021,39.897528],[0.684954,39.897247],[0.684748,39.897119],[0.684476,39.896839],[0.684442,39.896642],[0.684547,39.89599],[0.684871,39.895493],[0.68543,39.895007],[0.685736,39.894835],[0.686515,39.894522],[0.687013,39.894651],[0.68729,39.894588],[0.687504,39.894653],[0.687723,39.894808],[0.68864,39.894905],[0.68869,39.89475],[0.688625,39.894617],[0.688479,39.894523],[0.688382,39.894022],[0.688215,39.893748],[0.68798,39.893728],[0.68787,39.893633],[0.687717,39.893611],[0.687659,39.893405],[0.687421,39.893332],[0.687106,39.893333],[0.686176,39.893443],[0.685717,39.893593],[0.685586,39.893768],[0.68537,39.893892],[0.685207,39.893898],[0.684975,39.894157],[0.684702,39.894292],[0.684581,39.894449],[0.6843,39.894647],[0.684248,39.894991],[0.683969,39.89545],[0.683912,39.89592],[0.683824,39.896022],[0.683702,39.896792],[0.683728,39.897286],[0.683985,39.897926],[0.684485,39.898325],[0.685316,39.899415],[0.686455,39.900379],[0.686675,39.900345],[0.686887,39.900374],[0.687002,39.90055],[0.688236,39.900664],[0.688523,39.900565],[0.688666,39.900407]],[[0.01475,39.976413],[0.014583,39.976114],[0.013763,39.976439],[0.013058,39.975153],[0.011625,39.975689],[0.012722,39.97739],[0.013345,39.978989],[0.013431,39.978472],[0.013678,39.977797],[0.014213,39.977043],[0.014773,39.976453],[0.01475,39.976413]]]}},{"type":"Feature","properties":{"CUSEC":"1204009002"},"geometry":{"type":"Polygon","coordinates":[[[0.013058,39.975153],[0.015232,39.974327],[0.014598,39.973268],[0.013191,39.973804],[0.010942,39.974532],[0.011625,39.975689],[0.013058,39.975153]]]}},{"type":"Feature","properties":{"CUSEC":"1204009003"},"geometry":{"type":"Polygon","coordinates":[[[0.014598,39.973268],[0.013714,39.971829],[0.01327,39.972013],[0.012625,39.972385],[0.010762,39.974225],[0.010942,39.974532],[0.013191,39.973804],[0.014598,39.973268]]]}},{"type":"Feature","properties":{"CUSEC":"1204009004"},"geometry":{"type":"Polygon","coordinates":[[[0.013714,39.971829],[0.012998,39.970655],[0.012888,39.970559],[0.012085,39.970823],[0.01212,39.970889],[0.010797,39.971313],[0.011167,39.972015],[0.010655,39.972157],[0.009699,39.970474],[0.009208,39.970639],[0.010022,39.972633],[0.010762,39.974225],[0.012625,39.972385],[0.01327,39.972013],[0.013714,39.971829]]]}},{"type":"Feature","properties":{"CUSEC":"1204009005"},"geometry":{"type":"Polygon","coordinates":[[[0.026464,39.993888],[0.027004,39.993724],[0.027223,39.993612],[0.027048,39.993149],[0.027773,39.992554],[0.026319,39.989518],[0.025548,39.987222],[0.024775,39.985697],[0.024604,39.985187],[0.02379,39.981919],[0.02323,39.981019],[0.023072,39.97991],[0.022592,39.978347],[0.021498,39.977756],[0.020528,39.97434],[0.023186,39.973084],[0.022957,39.972814],[0.016034,39.975733],[0.015268,39.976117],[0.014773,39.976453],[0.014459,39.976762],[0.013678,39.977797],[0.013431,39.978472],[0.013345,39.978989],[0.013618,39.979703],[0.017834,39.97859],[0.020544,39.983447],[0.023837,39.989609],[0.026211,39.99392],[0.02617,39.993936],[0.026237,39.993958],[0.026464,39.993888]]]}},{"type":"Feature","properties":{"CUSEC":"1204009006"},"geometry":{"type":"Polygon","coordinates":[[[0.009225,39.970702],[0.009208,39.970639],[0.009699,39.970474],[0.010655,39.972157],[0.011167,39.972015],[0.010797,39.971313],[0.01212,39.970889],[0.012085,39.970823],[0.012888,39.970559],[0.011453,39.969329],[0.011355,39.96941],[0.010972,39.968947],[0.010859,39.968902],[0.010992,39.968292],[0.010623,39.968212],[0.010295,39.967932],[0.009527,39.966971],[0.009103,39.966117],[0.008272,39.963995],[0.00777,39.963233],[0.007297,39.962309],[0.007163,39.961925],[0.006957,39.960165],[0.006536,39.959365],[0.005884,39.95785],[0.005287,39.956236],[0.004918,39.955029],[0.004433,39.953051],[0.004198,39.951436],[0.003473,39.949023],[0.003218,39.946687],[0.002441,39.942834],[0.00191,39.943001],[0.001478,39.9433],[0.000778,39.943346],[-8.9e-05,39.943584],[-0.003806,39.945041],[-0.009566,39.947135],[-0.011426,39.947679],[-0.014547,39.94884],[-0.015919,39.949047],[-0.016332,39.948967],[-0.016634,39.948759],[-0.017165,39.948133],[-0.017688,39.947678],[-0.017975,39.947523],[-0.019878,39.946834],[-0.020301,39.9468],[-0.022379,39.947448],[-0.022962,39.947508],[-0.023293,39.947426],[-0.024091,39.946294],[-0.02435,39.946255],[-0.025032,39.946462],[-0.026019,39.946631],[-0.026469,39.946778],[-0.028074,39.94754],[-0.028835,39.947541],[-0.02959,39.947678],[-0.029936,39.947795],[-0.031005,39.948507],[-0.031545,39.948746],[-0.033025,39.949162],[-0.034164,39.949624],[-0.036214,39.950108],[-0.038077,39.950345],[-0.03862,39.950494],[-0.039022,39.950682],[-0.038022,39.951023],[-0.019787,39.958264],[-0.013894,39.96053],[-0.01394,39.960607],[-0.011929,39.961364],[-0.01113,39.961722],[-0.010168,39.963373],[-0.010506,39.963535],[-0.010569,39.963608],[-0.009216,39.966322],[-0.007639,39.965924],[-0.007229,39.967109],[-0.006794,39.967936],[-0.006171,39.968829],[-0.005771,39.969166],[-0.005567,39.97018],[-0.0052,39.971325],[-0.004992,39.972547],[-0.004571,39.973341],[-0.004129,39.973943],[0.005194,39.971089],[0.007274,39.970501],[0.009225,39.970702]]]}},{"type":"Feature","properties":{"CUSEC":"1204009007"},"geometry":{"type":"Polygon","coordinates":[[[-0.00456,39.994308],[-0.003572,39.994066],[-0.001772,39.993738],[-5e-05,39.993298],[0.000328,39.993172],[0.000914,39.992829],[0.002602,39.99237],[0.003156,39.9923],[0.003549,39.992336],[0.003639,39.992385],[0.004127,39.993326],[0.005723,39.993022],[0.005638,39.992706],[0.005724,39.992666],[0.010431,39.992173],[0.015539,39.991527],[0.015788,39.991153],[0.016589,39.990784],[0.01733,39.990511],[0.018441,39.990439],[0.014122,39.981016],[0.012722,39.97739],[0.012055,39.976323],[0.011925,39.976194],[0.010754,39.974211],[0.010249,39.973154],[0.009225,39.970702],[0.007274,39.970501],[0.005194,39.971089],[-0.004538,39.974098],[-0.005797,39.974438],[-0.006589,39.974601],[-0.006544,39.974666],[-0.005552,39.97526],[-0.005116,39.975656],[-0.004625,39.976886],[-0.004275,39.977259],[-0.004141,39.977575],[-0.004162,39.977875],[-0.004591,39.978909],[-0.004506,39.980025],[-0.004587,39.980508],[-0.00476,39.980954],[-0.004814,39.981355],[-0.004625,39.982194],[-0.00434,39.983016],[-0.004447,39.984172],[-0.004042,39.985073],[-0.003855,39.986154],[-0.003732,39.987872],[-0.003988,39.98797],[-0.003988,39.988252],[-0.003364,39.990067],[-0.002865,39.990911],[-0.002871,39.991048],[-0.002951,39.991113],[-0.003921,39.991421],[-0.004361,39.99215],[-0.005031,39.992893],[-0.005146,39.993122],[-0.005281,39.993641],[-0.005154,39.994387],[-0.00456,39.994308]]]}},{"type":"Feature","properties":{"CUSEC":"1204009009"},"geometry":{"type":"Polygon","coordinates":[[[0.015386,39.979236],[0.013618,39.979703],[0.014122,39.981016],[0.015822,39.984652],[0.017762,39.98408],[0.015386,39.979236]]]}},{"type":"Feature","properties":{"CUSEC":"1204009010"},"geometry":{"type":"Polygon","coordinates":[[[0.023186,39.973084],[0.024501,39.972039],[0.027498,39.969393],[0.028063,39.969189],[0.028195,39.969006],[0.02822,39.968771],[0.02807,39.968568],[0.027853,39.96842],[0.027463,39.96834],[0.027289,39.968372],[0.026488,39.969591],[0.025739,39.970124],[0.023546,39.972163],[0.02299,39.972574],[0.021777,39.973209],[0.021438,39.973209],[0.021325,39.97305],[0.021487,39.97219],[0.021708,39.971643],[0.021751,39.971273],[0.021683,39.970797],[0.020912,39.969782],[0.020686,39.969706],[0.020457,39.969802],[0.020391,39.969912],[0.020411,39.970092],[0.020973,39.971158],[0.021007,39.971391],[0.019921,39.97332],[0.018622,39.973868],[0.017169,39.974365],[0.016282,39.972839],[0.015372,39.972908],[0.014737,39.972861],[0.014778,39.972707],[0.015026,39.972493],[0.015054,39.97233],[0.014328,39.971259],[0.014202,39.970803],[0.014279,39.970414],[0.018674,39.968678],[0.020788,39.967767],[0.02101,39.967743],[0.022449,39.968003],[0.023787,39.968346],[0.024042,39.968277],[0.024006,39.967998],[0.020862,39.967315],[0.01907,39.9681],[0.013661,39.970223],[0.013157,39.970209],[0.012516,39.969991],[0.011878,39.969594],[0.011594,39.969259],[0.011397,39.968768],[0.011542,39.968603],[0.014702,39.966989],[0.014753,39.966835],[0.014676,39.966674],[0.01435,39.96671],[0.01159,39.968097],[0.010992,39.968292],[0.010859,39.968902],[0.010972,39.968947],[0.011355,39.96941],[0.011453,39.969329],[0.012998,39.970655],[0.015232,39.974327],[0.013058,39.975153],[0.013763,39.976439],[0.014583,39.976114],[0.014774,39.976455],[0.015268,39.976117],[0.015931,39.975779],[0.022957,39.972814],[0.023186,39.973084]]]}},{"type":"Feature","properties":{"CUSEC":"1204009011"},"geometry":{"type":"Polygon","coordinates":[[[0.031806,40.002083],[0.031762,40.001754],[0.031858,40.001526],[0.03146,40.001527],[0.030543,40.000137],[0.030366,39.999583],[0.028736,39.997149],[0.028137,39.996039],[0.027223,39.993612],[0.027004,39.993724],[0.026464,39.993888],[0.026348,39.994133],[0.022358,39.995157],[0.022097,39.995327],[0.021729,39.995853],[0.021205,39.996382],[0.019764,39.993373],[0.019779,39.993258],[0.018441,39.990439],[0.01733,39.990511],[0.016589,39.990784],[0.015788,39.991153],[0.015539,39.991527],[0.010431,39.992173],[0.005724,39.992666],[0.005638,39.992706],[0.005723,39.993022],[0.004127,39.993326],[0.003769,39.992585],[0.003639,39.992385],[0.003549,39.992336],[0.003046,39.992303],[0.002373,39.992409],[0.000914,39.992829],[0.000328,39.993172],[-5e-05,39.993298],[-0.001772,39.993738],[-0.003572,39.994066],[-0.00456,39.994308],[-0.004475,39.994338],[-0.004025,39.995043],[-0.00322,39.99682],[-0.00332,39.997216],[-0.003373,39.997801],[-0.003719,39.999178],[-0.004238,39.999876],[-0.004243,40.000058],[-0.003987,40.000514],[-0.003979,40.000715],[-0.004165,40.002139],[-0.005581,40.002377],[-0.005697,40.00242],[-0.00572,40.002491],[-0.005775,40.004828],[-0.00623,40.008785],[-0.002943,40.009125],[0.002771,40.008769],[0.009492,40.008232],[0.012724,40.007881],[0.013606,40.00763],[0.015889,40.006541],[0.019453,40.004713],[0.022175,40.003479],[0.024119,40.003161],[0.027082,40.002874],[0.030138,40.00247],[0.031806,40.002083]]]}},{"type":"Feature","properties":{"CUSEC":"1204009012"},"geometry":{"type":"Polygon","coordinates":[[[0.031806,40.002083],[0.030138,40.00247],[0.027082,40.002874],[0.024119,40.003161],[0.022175,40.003479],[0.019453,40.004713],[0.015889,40.006541],[0.013606,40.00763],[0.012724,40.007881],[0.009492,40.008232],[0.002771,40.008769],[-0.002943,40.009125],[-0.002913,40.011014],[-0.00287,40.011093],[-0.002411,40.011122],[-0.002329,40.0112],[-0.002123,40.013197],[-0.003335,40.016923],[-0.002712,40.017098],[-0.001895,40.017217],[-0.00184,40.017276],[-0.003073,40.019301],[-0.002291,40.019824],[-0.002515,40.020988],[-0.002499,40.02137],[-0.002347,40.021849],[-0.00219,40.022137],[-0.001924,40.022532],[-0.001514,40.022934],[-0.00022,40.023776],[0.001012,40.024409],[0.014224,40.029554],[0.015066,40.027299],[0.015594,40.025706],[0.015812,40.025329],[0.036952,40.0163],[0.039476,40.015378],[0.037689,40.013885],[0.037084,40.013198],[0.036105,40.01226],[0.035828,40.012087],[0.035567,40.012004],[0.034839,40.009852],[0.032931,40.005128],[0.032609,40.00501],[0.032701,40.004702],[0.032074,40.0027],[0.03178,40.00242],[0.032409,40.002079],[0.032702,40.001801],[0.032386,40.001818],[0.031816,40.002158],[0.031806,40.002083]]]}},{"type":"Feature","properties":{"CUSEC":"1204009013"},"geometry":{"type":"Polygon","coordinates":[[[0.015386,39.979236],[0.017762,39.98408],[0.015774,39.984672],[0.019779,39.993258],[0.019764,39.993373],[0.021205,39.996382],[0.021729,39.995853],[0.022097,39.995327],[0.022358,39.995157],[0.026348,39.994133],[0.026464,39.993888],[0.026237,39.993958],[0.02617,39.993936],[0.026211,39.99392],[0.023837,39.989609],[0.020544,39.983447],[0.017834,39.97859],[0.015386,39.979236]]]}}]}